     2.11           N: GPS NAV DATA                         RINEX VERSION / TYPE
RTKCONV 2.4.2       Liu.TY              20180927 203735 UTC PGM / RUN BY / DATE 
log: C:\Users\«Ó®ð¬h¤¸\Desktop\PVT  Project\DataFile\COM5_  COMMENT             
format: u-blox                                              COMMENT             
Antenna in CA548                                            COMMENT             
    8.3819E-09  1.4901E-08 -5.9605E-08 -5.9605E-08          ION ALPHA           
    8.3968E+04  1.6384E+04 -1.3107E+05 -6.5536E+04          ION BETA            
     .000000000000E+00  .532907051820E-14  -458752      228 DELTA-UTC: A0,A1,T,W
    18                                                      LEAP SECONDS        
                                                            END OF HEADER       
 5 18  9 27 20  0  0.0 -.151945278049E-05  .341060513165E-12  .000000000000E+00
     .790000000000E+02 -.472187500000E+02  .534200823037E-08  .172518376830E+01
    -.237673521042E-05  .564649165608E-02  .553950667381E-05  .515378415489E+04
     .417600000000E+06 -.135973095894E-06  .242318802342E+01  .670552253723E-07
     .948497685833E+00  .268968750000E+03  .691330384800E+00 -.853856995143E-08
    -.303226916332E-09  .100000000000E+01  .202000000000E+04  .000000000000E+00
     .240000000000E+01  .000000000000E+00 -.111758708954E-07  .790000000000E+02
     .417096000000E+06  .400000000000E+01
30 18  9 27 20  0  0.0  .181179493666E-04 -.534328137292E-11  .000000000000E+00
     .700000000000E+02  .919375000000E+02  .509449792057E-08 -.185513480469E+01
     .468455255032E-05  .362846220378E-02  .527687370777E-05  .515368563843E+04
     .417600000000E+06  .186264514923E-08 -.169464088565E+01 -.726431608200E-07
     .942747778486E+00  .267500000000E+03 -.297376307228E+01 -.854035574010E-08
     .326442169055E-09  .100000000000E+01  .202000000000E+04  .000000000000E+00
     .240000000000E+01  .000000000000E+00  .372529029846E-08  .700000000000E+02
     .417096000000E+06  .400000000000E+01
13 18  9 27 20  0  0.0 -.882903113961E-04  .795807864051E-12  .000000000000E+00
     .460000000000E+02  .286562500000E+02  .424767693279E-08 -.197222339719E+00
     .164844095707E-05  .342770246789E-02  .119656324387E-04  .515367486382E+04
     .417600000000E+06 -.204890966415E-07 -.267015321757E+01 -.186264514923E-08
     .968683186023E+00  .150656250000E+03  .145726196106E+01 -.791068665471E-08
    -.126076680171E-09  .100000000000E+01  .202000000000E+04  .000000000000E+00
     .240000000000E+01  .000000000000E+00 -.111758708954E-07  .460000000000E+02
     .417096000000E+06  .400000000000E+01
28 18  9 27 19 59 44.0  .746797304600E-03  .216004991671E-11  .000000000000E+00
     .400000000000E+01 -.763750000000E+02  .401230998596E-08  .190602318104E+01
    -.423565506935E-05  .195824899711E-01  .456348061562E-05  .515368856239E+04
     .417584000000E+06  .333413481712E-06 -.607741883392E+00 -.227242708206E-06
     .984729382914E+00  .300906250000E+03 -.151271354463E+01 -.789711466081E-08
    -.380730144653E-09  .100000000000E+01  .202000000000E+04  .000000000000E+00
     .240000000000E+01  .000000000000E+00 -.111758708954E-07  .400000000000E+01
     .417096000000E+06  .400000000000E+01
 7 18  9 27 20  0  0.0  .116636510938E-03 -.670752342558E-11  .000000000000E+00
     .820000000000E+02  .944062500000E+02  .471733935326E-08 -.183310518654E+01
     .476650893688E-05  .120983824600E-01  .538490712643E-05  .515364073181E+04
     .417600000000E+06  .104308128357E-06 -.172642365574E+01 -.186264514923E-06
     .957206893589E+00  .273562500000E+03 -.248912640064E+01 -.821712799065E-08
     .412874340731E-09  .100000000000E+01  .202000000000E+04  .000000000000E+00
     .240000000000E+01  .000000000000E+00 -.111758708954E-07  .820000000000E+02
     .417096000000E+06  .400000000000E+01
21 18  9 27 20  0  0.0 -.330269336700E-03  .602540239925E-11  .000000000000E+00
     .670000000000E+02  .653125000000E+02  .497770734149E-08 -.295097984944E+01
     .312551856041E-05  .243505160324E-01  .648945569992E-05  .515361847115E+04
     .417600000000E+06  .352039933205E-06  .134582795363E+01  .152736902237E-06
     .945052475720E+00  .239875000000E+03 -.152411794195E+01 -.797961809741E-08
     .601810782120E-09  .100000000000E+01  .202000000000E+04  .000000000000E+00
     .240000000000E+01  .000000000000E+00 -.102445483208E-07  .670000000000E+02
     .417096000000E+06  .400000000000E+01
 8 18  9 27 20  0  0.0 -.116613693535E-03 -.136424205266E-11  .000000000000E+00
     .410000000000E+02 -.442500000000E+02  .390480550797E-08  .138178400037E+01
    -.226497650146E-05  .357227830682E-02  .126305967569E-04  .515363920021E+04
     .417600000000E+06  .614672899246E-07  .338193023051E+00  .633299350739E-07
     .970028625929E+00  .139625000000E+03 -.410304965774E+00 -.773139347214E-08
     .142863093678E-10  .100000000000E+01  .202000000000E+04  .000000000000E+00
     .240000000000E+01  .000000000000E+00  .512227416039E-08  .410000000000E+02
     .417096000000E+06  .400000000000E+01
15 18  9 27 19 59 44.0 -.344706699252E-03  .102318153949E-11  .000000000000E+00
     .000000000000E+00 -.190625000000E+01  .523593238331E-08  .825982565489E-01
     .577419996262E-07  .107687395066E-01  .112913548946E-04  .515357240295E+04
     .417584000000E+06  .000000000000E+00 -.287746636390E+01  .145286321640E-06
     .928642304811E+00  .142656250000E+03  .707782844282E+00 -.847571019021E-08
    -.310012913282E-09  .100000000000E+01  .202000000000E+04  .000000000000E+00
     .240000000000E+01  .000000000000E+00 -.107102096081E-07  .000000000000E+00
     .417096000000E+06  .400000000000E+01
 5 18  9 27 22  0  0.0 -.151665881276E-05  .341060513165E-12  .000000000000E+00
     .820000000000E+02 -.472812500000E+02  .527271962994E-08  .277532361690E+01
    -.244565308094E-05  .564664183185E-02  .556930899620E-05  .515378380203E+04
     .424800000000E+06 -.335276126862E-07  .242312689831E+01 -.707805156708E-07
     .948496348726E+00  .267562500000E+03  .691309805931E+00 -.838356349478E-08
    -.264653881039E-09  .100000000000E+01  .202000000000E+04  .000000000000E+00
     .240000000000E+01  .000000000000E+00 -.111758708954E-07  .820000000000E+02
     .417606000000E+06  .400000000000E+01
30 18  9 27 22  0  0.0  .180797651410E-04 -.534328137292E-11  .000000000000E+00
     .710000000000E+02  .967812500000E+02  .515807199726E-08 -.805196968989E+00
     .489689409733E-05  .362823868636E-02  .507757067680E-05  .515368394279E+04
     .424800000000E+06  .987201929092E-07 -.169470212779E+01 -.596046447754E-07
     .942749844127E+00  .271906250000E+03 -.297352267680E+01 -.858678624554E-08
     .266439669710E-09  .100000000000E+01  .202000000000E+04  .000000000000E+00
     .240000000000E+01  .000000000000E+00  .372529029846E-08  .710000000000E+02
     .417606000000E+06  .400000000000E+01
28 18  9 27 22  0  0.0  .746812671423E-03  .216004991671E-11  .000000000000E+00
     .500000000000E+01 -.846250000000E+02  .406016912234E-08  .295856853802E+01
    -.423938035965E-05  .195831155870E-01  .467710196972E-05  .515368670082E+04
     .424800000000E+06  .223517417908E-06 -.607797389429E+00  .204890966415E-07
     .984726617999E+00  .299781250000E+03 -.151275644031E+01 -.774889420112E-08
    -.469662420468E-09  .100000000000E+01  .202000000000E+04  .000000000000E+00
     .240000000000E+01  .000000000000E+00 -.111758708954E-07  .500000000000E+01
     .417606000000E+06  .400000000000E+01
 7 18  9 27 22  0  0.0  .116588082165E-03 -.670752342558E-11  .000000000000E+00
     .830000000000E+02  .935312500000E+02  .486341686655E-08 -.782888220220E+00
     .482797622681E-05  .120986881666E-01  .517629086971E-05  .515364117432E+04
     .424800000000E+06  .217929482460E-06 -.172648248699E+01  .175088644028E-06
     .957208058072E+00  .277843750000E+03 -.248914102105E+01 -.852928385034E-08
     .229295265354E-09  .100000000000E+01  .202000000000E+04  .000000000000E+00
     .240000000000E+01  .000000000000E+00 -.111758708954E-07  .830000000000E+02
     .417606000000E+06  .400000000000E+01
21 18  9 27 22  0  0.0 -.330225564539E-03  .602540239925E-11  .000000000000E+00
     .750000000000E+02  .574375000000E+02  .483734435195E-08 -.190073391441E+01
     .344961881638E-05  .243497579359E-01  .653229653835E-05  .515362034416E+04
     .424800000000E+06  .305473804474E-06  .134577069648E+01  .411644577980E-06
     .945056547021E+00  .239781250000E+03 -.152414717252E+01 -.809247994141E-08
     .581452791271E-09  .100000000000E+01  .202000000000E+04  .000000000000E+00
     .240000000000E+01  .000000000000E+00 -.102445483208E-07  .750000000000E+02
     .417606000000E+06  .400000000000E+01
 8 18  9 27 22  0  0.0 -.116623472422E-03 -.136424205266E-11  .000000000000E+00
     .420000000000E+02 -.396562500000E+02  .395516474849E-08  .243242559330E+01
    -.206567347050E-05  .357329717372E-02  .119376927614E-04  .515363574982E+04
     .424800000000E+06  .223517417908E-07  .338137623806E+00  .279396772385E-07
     .970028571801E+00  .153500000000E+03 -.410748462556E+00 -.771925010918E-08
    -.235724104569E-10  .100000000000E+01  .202000000000E+04  .000000000000E+00
     .240000000000E+01  .000000000000E+00  .512227416039E-08  .420000000000E+02
     .417606000000E+06  .400000000000E+01
13 18  9 27 22  0  0.0 -.882847234607E-04  .795807864051E-12  .000000000000E+00
     .470000000000E+02  .267500000000E+02  .420660379336E-08  .852845359221E+00
     .149011611938E-05  .342978886329E-02  .128801912069E-04  .515367883301E+04
     .424800000000E+06 -.782310962677E-07 -.267021036208E+01  .204890966415E-07
     .968682437009E+00  .135062500000E+03  .145737087531E+01 -.788961434839E-08
    -.835749098019E-10  .100000000000E+01  .202000000000E+04  .000000000000E+00
     .240000000000E+01  .000000000000E+00 -.111758708954E-07  .470000000000E+02
     .417636000000E+06  .400000000000E+01
 2 18  9 27 21 59 44.0 -.141356140375E-04 -.109139364213E-10  .000000000000E+00
     .450000000000E+02  .473437500000E+02  .500127975195E-08  .168482493355E+00
     .237487256527E-05  .181741606211E-01  .766105949879E-05  .515355957603E+04
     .424784000000E+06 -.266358256340E-06  .133971640269E+01  .875443220139E-07
     .951435687618E+00  .230750000000E+03 -.182755238108E+01 -.862785938497E-08
     .533950812623E-09  .100000000000E+01  .202000000000E+04  .000000000000E+00
     .240000000000E+01  .000000000000E+00 -.204890966415E-07  .450000000000E+02
     .417636000000E+06  .400000000000E+01
15 18  9 27 21 59 44.0 -.344698783010E-03  .102318153949E-11  .000000000000E+00
     .580000000000E+02 -.387500000000E+01  .522378902035E-08  .113269141319E+01
     .128522515297E-06  .107699733926E-01  .123735517263E-04  .515357616806E+04
     .424784000000E+06 -.108033418655E-06 -.287752684971E+01  .106170773506E-06
     .928639832479E+00  .126000000000E+03  .707937114845E+00 -.843713715491E-08
    -.377515725045E-09  .100000000000E+01  .202000000000E+04  .000000000000E+00
     .240000000000E+01  .000000000000E+00 -.107102096081E-07  .580000000000E+02
     .417966000000E+06  .400000000000E+01
24 18  9 27 22  0  0.0 -.559776090086E-04 -.568434188608E-12  .000000000000E+00
     .610000000000E+02  .870625000000E+02  .529879214453E-08  .232127399781E+00
     .461377203465E-05  .729376811069E-02  .563450157642E-05  .515362710571E+04
     .424800000000E+06  .111758708954E-07 -.178836799451E+01  .409781932831E-07
     .940343532603E+00  .255250000000E+03  .535664807858E+00 -.869107630393E-08
     .195365280605E-09  .100000000000E+01  .202000000000E+04  .000000000000E+00
     .240000000000E+01  .000000000000E+00  .279396772385E-08  .610000000000E+02
     .419376000000E+06  .400000000000E+01
